NORAD_CAT_ID,OBJECT_NAME,OBJECT_TYPE,EPOCH,MEAN_MOTION,ECCENTRICITY,INCLINATION,RA_OF_ASC_NODE,ARG_OF_PERICENTER,MEAN_ANOMALY,BSTAR,MEAN_MOTION_DOT,MEAN_MOTION_DDOT,TLE_LINE0,TLE_LINE1,TLE_LINE2,SEMIMAJOR_AXIS,PERIOD,APOGEE,PERIGEE,DECAYED
53155.0,STARLINK-4088,PAYLOAD,2023-06-07 08:06:45,15.08837431,0.0001181,53.2172,1.8069,83.8618,276.2509,2.2202e-05,6.6e-07,0.0,0 STARLINK-4088,1 53155U 22083Z   23158.33802211  .00000066  00000-0  22202-4 0  9997,2 53155  53.2172   1.8069 0001181  83.8618 276.2509 15.08837431 50062,6917.888,95.438,540.57,538.936,0.0
53155.0,STARLINK-4088,PAYLOAD,2023-06-07 20:49:50,15.08838949,0.0001325,53.2171,359.4288,96.7933,263.321,3.0118e-05,1.91e-06,0.0,0 STARLINK-4088,1 53155U 22083Z   23158.86794298  .00000191  00000-0  30118-4 0  9994,2 53155  53.2171 359.4288 0001325  96.7933 263.3210 15.08838949 50150,6917.884,95.438,540.665,538.832,0.0
53155.0,STARLINK-4088,PAYLOAD,2023-06-07 22:25:13,15.08841602,0.0001334,53.217,359.1317,97.5231,262.5913,4.3999e-05,4.12e-06,0.0,0 STARLINK-4088,1 53155U 22083Z   23158.93418097  .00000412  00000-0  43999-4 0  9999,2 53155  53.2170 359.1317 0001334  97.5231 262.5913 15.08841602 50161,6917.875,95.437,540.663,538.818,0.0
53155.0,STARLINK-4088,PAYLOAD,2023-06-08 22:15:59,15.08848265,0.0001195,53.217,354.67,96.159,263.9538,0.00011632,1.564e-05,0.0,0 STARLINK-4088,1 53155U 22083Z   23159.92777563  .00001564  00000-0  11632-3 0  9992,2 53155  53.2170 354.6700 0001195  96.1590 263.9538 15.08848265 50301,6917.855,95.437,540.547,538.893,0.0
53155.0,STARLINK-4088,PAYLOAD,2023-06-09 06:12:56,15.08841663,0.0001187,53.2171,353.1817,85.1913,274.9215,3.488e-05,2.67e-06,0.0,0 STARLINK-4088,1 53155U 22083Z   23160.25898191  .00000267  00000-0  34880-4 0  9991,2 53155  53.2171 353.1817 0001187  85.1913 274.9215 15.08841663 50357,6917.875,95.437,540.561,538.919,0.0
53155.0,STARLINK-4088,PAYLOAD,2023-06-09 15:45:14,15.08838224,0.0001266,53.2192,351.3935,143.4557,216.6521,4.3793e-05,4.09e-06,0.0,0 STARLINK-4088,1 53155U 22083Z   23160.65642116  .00000409  00000-0  43793-4 0  9990,2 53155  53.2192 351.3935 0001266 143.4557 216.6521 15.08838224 50421,6917.886,95.438,540.627,538.875,0.0
53155.0,STARLINK-4088,PAYLOAD,2023-06-10 07:39:06,15.08843134,0.0001265,53.2167,348.4263,88.0333,272.0804,7.3772e-05,8.86e-06,0.0,0 STARLINK-4088,1 53155U 22083Z   23161.31882099  .00000886  00000-0  73772-4 0  9999,2 53155  53.2167 348.4263 0001265  88.0333 272.0804 15.08843134 50515,6917.871,95.437,540.611,538.861,0.0
53155.0,STARLINK-4088,PAYLOAD,2023-06-10 21:57:33,15.08850456,0.0001165,53.2171,345.7484,98.3469,261.7655,3.7193e-05,3.04e-06,0.0,0 STARLINK-4088,1 53155U 22083Z   23161.91497608  .00000304  00000-0  37193-4 0  9995,2 53155  53.2171 345.7484 0001165  98.3469 261.7655 15.08850456 50613,6917.848,95.437,540.519,538.907,0.0
53155.0,STARLINK-4088,PAYLOAD,2023-06-11 12:16:02,15.08835671,0.0001124,53.2176,343.0731,88.9889,271.1232,4.6978e-05,4.6e-06,0.0,0 STARLINK-4088,1 53155U 22083Z   23162.51114523  .00000460  00000-0  46978-4 0  9998,2 53155  53.2176 343.0731 0001124  88.9889 271.1232 15.08835671 50708,6917.894,95.438,540.536,538.981,0.0
53155.0,STARLINK-4088,PAYLOAD,2023-06-11 15:26:49,15.08837161,0.000119,53.2172,342.4779,90.4993,269.6136,5.1095e-05,5.25e-06,0.0,0 STARLINK-4088,1 53155U 22083Z   23162.64362443  .00000525  00000-0  51095-4 0  9996,2 53155  53.2172 342.4779 0001190  90.4993 269.6136 15.08837161 50718,6917.889,95.438,540.577,538.931,0.0
53155.0,STARLINK-4088,PAYLOAD,2023-06-11 18:37:35,15.08836069,0.0001228,53.2171,341.8834,87.1374,272.9759,3.9533e-05,3.41e-06,0.0,0 STARLINK-4088,1 53155U 22083Z   23162.77610583  .00000341  00000-0  39533-4 0  9990,2 53155  53.2171 341.8834 0001228  87.1374 272.9759 15.08836069 50747,6917.892,95.438,540.607,538.908,0.0
53155.0,STARLINK-4088,PAYLOAD,2023-06-12 12:06:50,15.08836313,0.0001184,53.2172,338.6124,83.735,276.3778,3.7925e-05,3.16e-06,0.0,0 STARLINK-4088,1 53155U 22083Z   23163.50474603  .00000316  00000-0  37925-4 0  9998,2 53155  53.2172 338.6124 0001184  83.7350 276.3778 15.08836313 50854,6917.892,95.438,540.576,538.938,0.0
53155.0,STARLINK-4088,PAYLOAD,2023-06-12 18:28:22,15.08842164,0.0001153,53.2178,337.4221,86.6023,273.5101,8.167e-05,1.012e-05,0.0,0 STARLINK-4088,1 53155U 22083Z   23163.76970107  .00001012  00000-0  81670-4 0  9996,2 53155  53.2178 337.4221 0001153  86.6023 273.5101 15.08842164 50883,6917.874,95.437,540.536,538.941,0.0
53155.0,STARLINK-4088,PAYLOAD,2023-06-13 11:57:37,15.08832671,0.000115,53.2167,334.1521,81.5942,278.5181,2.952e-05,1.82e-06,0.0,0 STARLINK-4088,1 53155U 22083Z   23164.49834962  .00000182  00000-0  29520-4 0  9998,2 53155  53.2167 334.1521 0001150  81.5942 278.5181 15.08832671 50996,6917.903,95.438,540.563,538.972,0.0
53155.0,STARLINK-4088,PAYLOAD,2023-06-13 18:19:09,15.08840913,0.0001373,53.2167,332.9618,85.3043,274.8105,9.7861e-05,1.27e-05,0.0,0 STARLINK-4088,1 53155U 22083Z   23164.76330377  .00001270  00000-0  97861-4 0  9991,2 53155  53.2167 332.9618 0001373  85.3043 274.8105 15.08840913 51039,6917.878,95.437,540.692,538.793,0.0
53155.0,STARLINK-4088,PAYLOAD,2023-06-14 11:48:24,15.08838222,0.0001167,53.2181,329.6949,101.4147,258.6977,2.924e-05,1.78e-06,0.0,0 STARLINK-4088,1 53155U 22083Z   23165.49194800  .00000178  00000-0  29240-4 0  9993,2 53155  53.2181 329.6949 0001167 101.4147 258.6977 15.08838222 51140,6917.886,95.438,540.558,538.944,0.0
53155.0,STARLINK-4088,PAYLOAD,2023-06-14 19:45:19,15.08841327,0.0001076,53.218,328.2071,92.1852,267.9263,5.2802e-05,5.53e-06,0.0,0 STARLINK-4088,1 53155U 22083Z   23165.82314540  .00000553  00000-0  52802-4 0  9992,2 53155  53.2180 328.2071 0001076  92.1852 267.9263 15.08841327 51206,6917.876,95.437,540.486,538.997,0.0
53155.0,STARLINK-4088,PAYLOAD,2023-06-14 21:20:42,15.08844535,0.0001095,53.2177,327.9085,95.5052,264.6065,6.8299e-05,7.99e-06,0.0,0 STARLINK-4088,1 53155U 22083Z   23165.88938250  .00000799  00000-0  68299-4 0  9997,2 53155  53.2177 327.9085 0001095  95.5052 264.6065 15.08844535 51201,6917.867,95.437,540.489,538.974,0.0
53155.0,STARLINK-4088,PAYLOAD,2023-06-15 10:03:48,15.08832971,0.000112,53.2174,325.528,101.5928,258.519,2.2317e-05,6.7e-07,0.0,0 STARLINK-4088,1 53155U 22083Z   23166.41931176  .00000067  00000-0  22317-4 0  9996,2 53155  53.2174 325.5280 0001120 101.5928 258.5190 15.08832971 51288,6917.902,95.438,540.542,538.992,0.0
53155.0,STARLINK-4088,PAYLOAD,2023-06-15 11:39:11,15.0883361,0.000108,53.2165,325.2305,94.2375,265.8741,3.2801e-05,2.34e-06,0.0,0 STARLINK-4088,1 53155U 22083Z   23166.48555134  .00000234  00000-0  32801-4 0  9994,2 53155  53.2165 325.2305 0001080  94.2375 265.8741 15.08833610 51309,6917.9,95.438,540.512,539.018,0.0
53155.0,STARLINK-4088,PAYLOAD,2023-06-15 18:00:43,15.08842357,0.0001061,53.2173,324.0413,96.4734,263.6379,5.132e-05,5.29e-06,0.0,0 STARLINK-4088,1 53155U 22083Z   23166.75050554  .00000529  00000-0  51320-4 0  9994,2 53155  53.2173 324.0413 0001061  96.4734 263.6379 15.08842357 51331,6917.873,95.437,540.472,539.004,0.0
53155.0,STARLINK-4088,PAYLOAD,2023-06-16 11:29:57,15.08842767,9.94e-05,53.2172,320.7708,99.0309,261.0796,0.00010965,1.458e-05,0.0,0 STARLINK-4088,1 53155U 22083Z   23167.47914313  .00001458  00000-0  10965-3 0  9997,2 53155  53.2172 320.7708 0000994  99.0309 261.0796 15.08842767 51454,6917.872,95.437,540.425,539.049,0.0
53155.0,STARLINK-4088,PAYLOAD,2023-06-16 19:26:52,15.08856448,9.83e-05,53.217,319.2833,99.4501,260.6602,0.00014706,2.054e-05,0.0,0 STARLINK-4088,1 53155U 22083Z   23167.81033157  .00002054  00000-0  14706-3 0  9993,2 53155  53.2170 319.2833 0000983  99.4501 260.6602 15.08856448 51508,6917.83,95.437,540.375,539.015,0.0
53155.0,STARLINK-4088,PAYLOAD,2023-06-17 09:45:23,15.08827417,0.0001688,53.2177,316.6079,79.4765,280.6417,-8.2893e-06,-4.2e-06,0.0,0 STARLINK-4088,1 53155U 22083Z   23168.40651925 -.00000420  00000-0 -82893-5 0  9999,2 53155  53.2177 316.6079 0001688  79.4765 280.6417 15.08827417 51589,6917.919,95.438,540.952,538.616,0.0
53155.0,STARLINK-4088,PAYLOAD,2023-06-17 16:06:55,15.08828791,0.0001557,53.2175,315.4186,80.2577,279.8591,-4.3365e-06,-3.57e-06,0.0,0 STARLINK-4088,1 53155U 22083Z   23168.67147948 -.00000357  00000-0 -43365-5 0  9993,2 53155  53.2175 315.4186 0001557  80.2577 279.8591 15.08828791 51634,6917.915,95.438,540.857,538.703,0.0
53155.0,STARLINK-4088,PAYLOAD,2023-06-18 09:36:09,15.08841377,9.56e-05,53.2175,312.1473,80.9243,279.1857,6.3596e-05,7.25e-06,0.0,0 STARLINK-4088,1 53155U 22083Z   23169.40011291  .00000725  00000-0  63596-4 0  9990,2 53155  53.2175 312.1473 0000956  80.9243 279.1857 15.08841377 51730,6917.876,95.437,540.403,539.08,0.0
53155.0,STARLINK-4088,PAYLOAD,2023-06-18 15:57:41,15.08848119,9.59e-05,53.2172,310.9577,81.484,278.626,0.00013415,1.848e-05,0.0,0 STARLINK-4088,1 53155U 22083Z   23169.66506770  .00001848  00000-0  13415-3 0  9990,2 53155  53.2172 310.9577 0000959  81.4840 278.6260 15.08848119 51788,6917.856,95.437,540.384,539.057,0.0
53155.0,STARLINK-4088,PAYLOAD,2023-06-19 09:26:57,15.08839868,0.0001022,53.2161,307.6871,64.48,295.6298,0.00039068,5.935e-05,0.0,0 STARLINK-4088,1 53155U 22083Z   23170.39371704  .00005935  00000-0  39068-3 0  9992,2 53155  53.2161 307.6871 0001022  64.4800 295.6298 15.08839868 51887,6917.881,95.438,540.453,539.039,0.0
53155.0,STARLINK-4088,PAYLOAD,2023-06-20 09:17:43,15.08843072,0.0001089,53.217,303.2271,82.8522,277.2594,6.2041e-06,-1.89e-06,0.0,0 STARLINK-4088,1 53155U 22083Z   23171.38731357 -.00000189  00000-0  62041-5 0  9992,2 53155  53.2170 303.2271 0001089  82.8522 277.2594 15.08843072 52047,6917.871,95.437,540.489,538.983,0.0
53155.0,STARLINK-4088,PAYLOAD,2023-06-20 15:39:16,15.08845641,0.0001085,53.217,302.0384,79.6001,280.5113,5.6005e-05,6.04e-06,0.0,0 STARLINK-4088,1 53155U 22083Z   23171.65227116  .00000604  00000-0  56005-4 0  9998,2 53155  53.2170 302.0384 0001085  79.6001 280.5113 15.08845641 52072,6917.863,95.437,540.479,538.978,0.0
